SKYSAT-A                
1 39418U 13066C   23164.89713881  .00002289  00000+0  17731-3 0  9994
2 39418  97.5376 230.9884 0030819 116.5757 243.8632 15.02027611522867
SKYSAT-B                
1 40072U 14037D   23164.63410656  .00001045  00000+0  13706-3 0  9994
2 40072  98.3613  55.1405 0005088 227.0899 132.9886 14.82606129482744
SKYSAT-C1               
1 41601U 16040C   23165.43119150  .00011832  00000+0  32802-3 0  9996
2 41601  97.1121 236.2089 0001957 143.4600 216.6779 15.37084031389667
SKYSAT-C4               
1 41771U 16058B   23164.88573124  .00013817  00000+0  35147-3 0  9996
2 41771  97.0669 223.7113 0003373  14.7243 345.4101 15.39698990376547
SKYSAT-C5               
1 41772U 16058C   23165.44983073  .00009579  00000+0  30772-3 0  9997
2 41772  97.2144 224.2738 0001721  62.2057 297.9360 15.32482882375083
SKYSAT-C2               
1 41773U 16058D   23165.50880524  .00011876  00000+0  33163-3 0  9992
2 41773  97.0683 224.6315 0004337 123.0549 237.1114 15.36848188376659
SKYSAT-C3               
1 41774U 16058E   23165.47688974  .00014658  00000+0  34357-3 0  9991
2 41774  97.0682 227.2292 0001908 121.1477 238.9958 15.42173886376829
SKYSAT-C11              
1 42987U 17068A   23164.77743774  .00014542  00000+0  38546-3 0  9998
2 42987  97.3222 287.4509 0003665  95.4259 264.7405 15.38430718313955
SKYSAT-C10              
1 42988U 17068B   23164.78771849  .00014605  00000+0  38758-3 0  9999
2 42988  97.3280 288.0093 0004902 123.0248 237.1469 15.38387509313982
SKYSAT-C9               
1 42989U 17068C   23164.28119490  .00015081  00000+0  40380-3 0  9996
2 42989  97.3213 286.4146 0015500 104.0537 256.2432 15.37993828314109
SKYSAT-C8               
1 42990U 17068D   23165.54047884  .00011996  00000+0  33486-3 0  9995
2 42990  97.3303 289.1126 0003026 203.2389 156.8719 15.36873293314112
SKYSAT-C7               
1 42991U 17068E   23164.31321628  .00013965  00000+0  36993-3 0  9995
2 42991  97.3298 288.0487 0004960  93.6325 266.5487 15.38453042313931
SKYSAT-C6               
1 42992U 17068F   23165.13788523  .00014510  00000+0  38402-3 0  9992
2 42992  97.3329 289.3925 0003799 101.4015 258.7657 15.38477426314071
FLOCK 3P'-4             
1 43122U 18004M   23165.45690169  .00245224  00000+0  28285-2 0  9997
2 43122  97.3330 243.2821 0010272 209.3176 150.7507 15.61071881301705
FLOCK 3S-1              
1 43769U 18099M   23164.88548104  .00007569  00000+0  60117-3 0  9994
2 43769  97.5671 225.8346 0016292 151.9143 208.2963 15.00647140247102
SKYSAT-C12              
1 43797U 18099AR  23165.41766852  .00013138  00000+0  34486-3 0  9996
2 43797  97.0763 226.1054 0002778 314.2383  45.8635 15.38749388253144
SKYSAT-C13              
1 43802U 18099AW  23164.90300825  .00017445  00000+0  39842-3 0  9996
2 43802  97.1030 226.2223 0011296  86.3497 273.9042 15.42853017252613
FLOCK 4P-11             
1 44809U 19081F   23164.14926095  .00019615  00000+0  42736-3 0  9992
2 44809  97.3516 234.3278 0006767  18.0570 342.0918 15.44281885197239
FLOCK 4P-7              
1 44816U 19081N   23164.16387261  .00018784  00000+0  39661-3 0  9997
2 44816  97.3545 234.7734 0004796   9.9726 350.1617 15.45231266197259
FLOCK 4P-5              
1 44818U 19081Q   23164.97978938  .00023192  00000+0  52295-3 0  9992
2 44818  97.3530 235.0813 0005407  15.1200 345.0209 15.43235467197348
SKYSAT-C14              
1 45788U 20038BL  23164.99456523  .00020372  00000+0  45115-3 0  9996
2 45788  52.9845  12.1005 0010168 349.3059  10.7728 15.43738499170966
SKYSAT-C16              
1 45789U 20038BM  23165.36328558  .00032042  00000+0  49137-3 0  9990
2 45789  52.9863   6.6353 0005322  24.5886 335.5376 15.54033866171064
SKYSAT-C15              
1 45790U 20038BN  23165.21505545  .00018118  00000+0  39978-3 0  9999
2 45790  52.9840  10.5661 0012562 348.9680  11.1047 15.43903275170997
SKYSAT-C17              
1 46179U 20057BQ  23164.84944247  .00015580  00000+0  23671-3 0  9999
2 46179  52.9821 100.3327 0013065 151.2896 208.8835 15.54704240160271
SKYSAT-C18              
1 46180U 20057BR  23165.13982704  .00425730  93834-4  63521-3 0  9996
2 46180  52.9658  73.7178 0003332 274.4476  85.6173 16.04249199160691
SKYSAT-C19              
1 46235U 20057BS  23164.98541844  .00026694  00000+0  35759-3 0  9991
2 46235  52.9796  93.5965 0005783 168.4233 191.6911 15.57805808160414
FLOCK 4V-11             
1 46285U 20061P   23165.42456911  .00009938  00000+0  38355-3 0  9998
2 46285  97.4026 234.4387 0004489  85.2952 274.8799 15.26476851153440
FLOCK 4V-14             
1 46286U 20061Q   23164.62417998  .00012256  00000+0  46973-3 0  9994
2 46286  97.4029 233.6923 0004065  81.7359 278.4340 15.26654053153324
FLOCK 4V-8              
1 46288U 20061S   23164.74660961  .00009846  00000+0  37984-3 0  9992
2 46288  97.4026 233.7939 0003799  96.5340 263.6331 15.26496146153253
FLOCK 4V-6              
1 46289U 20061T   23164.13832721  .00008097  00000+0  33761-3 0  9997
2 46289  97.4067 232.9049 0003750 126.3009 233.8575 15.23948798153221
FLOCK 4V-5              
1 46290U 20061U   23165.13582130  .00033732  00000+0  15358-2 0  9991
2 46290  97.4044 232.1390 0003321 138.9532 221.1954 15.20609500153260
FLOCK 4V-7              
1 46291U 20061V   23164.75114387  .00031636  00000+0  11455-2 0  9999
2 46291  97.4030 233.9845 0002852 118.0494 242.1034 15.28332051153246
FLOCK 4V-10             
1 46296U 20061AA  23164.40802113  .00010903  00000+0  42038-3 0  9993
2 46296  97.4031 233.7358 0002032  83.6168 276.5302 15.26489081153269
FLOCK 4V-13             
1 46297U 20061AB  23165.18229891  .00009572  00000+0  36858-3 0  9999
2 46297  97.4033 234.5359 0001732  79.9757 280.1677 15.26569541153367
FLOCK 4V-1              
1 46313U 20061AT  23164.44439854  .00023328  00000+0  87358-3 0  9994
2 46313  97.4045 234.1925 0002272  35.5317 324.6072 15.27286588153286
FLOCK 4V-4              
1 46314U 20061AU  23164.92317160  .00052230  00000+0  16822-2 0  9994
2 46314  97.4022 234.8948 0001299  74.4788 285.6597 15.32021668153422
FLOCK 4V-16             
1 46527U 20061BD  23164.97560088  .00020210  00000+0  49747-3 0  9990
2 46527  97.3532 237.4215 0002426 267.9272  92.1697 15.40631908150083
FLOCK 4V-15             
1 46528U 20061BE  23164.47701110  .00019690  00000+0  49190-3 0  9991
2 46528  97.3508 237.2499 0000967 343.9872  16.1343 15.40189254150398
FLOCK 4V-17             
1 46529U 20061BF  23164.17529498  .00018137  00000+0  44821-3 0  9997
2 46529  97.3485 236.5164 0000710 304.7286  55.3893 15.40536175149542
FLOCK 4V-18             
1 46597U 20061BG  23164.94337250  .00019806  00000+0  49514-3 0  9998
2 46597  97.3585 238.1824 0002962 283.4137  76.6778 15.40163471149024
FLOCK 4V-19             
1 46609U 20061BH  23164.96811151  .00019066  00000+0  47704-3 0  9998
2 46609  97.3452 237.0350 0000457 177.1998 182.9250 15.40149192148595
FLOCK 4V-20             
1 46612U 20061BJ  23164.50677663  .00008692  00000+0  30058-3 0  9997
2 46612  97.3607 235.6171 0003087 296.3767  63.7156 15.30136950147885
FLOCK 4V-22             
1 46735U 20061BL  23164.15508556  .00067744  00000+0  19211-2 0  9998
2 46735  97.3413 234.3464 0005842 249.6572 110.4044 15.35971485146737
FLOCK 4V-23             
1 46737U 20061BM  23164.92436989  .00068217  00000+0  19777-2 0  9998
2 46737  97.3496 235.8150 0005614 228.9442 131.1317 15.35276894146770
FLOCK 4V-24             
1 46738U 20061BN  23164.94211365  .00020008  00000+0  49356-3 0  9993
2 46738  97.3582 238.1662 0001872 297.3732  62.7324 15.40569806146439
FLOCK 4V-25             
1 46812U 20061BP  23164.12631977  .00019184  00000+0  47579-3 0  9999
2 46812  97.3463 236.3126 0002054 241.4040 118.7000 15.40413525145955
FLOCK 4E'-1             
1 46813U 20077A   23165.01920167  .00022418  00000+0  52338-3 0  9991
2 46813  97.3679 230.6835 0006905 197.9501 162.1503 15.42190609145739
FLOCK 4E'-7             
1 46814U 20077B   23165.16777676  .00023512  00000+0  54874-3 0  9996
2 46814  97.3687 230.9752 0007426 198.5479 161.5498 15.42186900145768
FLOCK 4E'-9             
1 46815U 20077C   23164.12939313  .00054030  00000+0  17762-2 0  9993
2 46815  97.3668 226.2420 0011546 211.1389 148.9170 15.31291479145388
FLOCK 4E'-8             
1 46816U 20077D   23164.90254938  .00023228  00000+0  53520-3 0  9991
2 46816  97.3722 232.1701 0008387 172.5361 187.6012 15.42566656145803
FLOCK 4E'-5             
1 46817U 20077E   23164.61637766  .00019746  00000+0  46121-3 0  9993
2 46817  97.3705 231.2143 0008862 183.4685 176.6502 15.42186299145716
FLOCK 4E'-3             
1 46819U 20077G   23164.60122319  .00021667  00000+0  50667-3 0  9992
2 46819  97.3679 230.9191 0009276 179.8886 180.2365 15.42128349145719
FLOCK 4E'-2             
1 46820U 20077H   23165.41773673  .00072658  00000+0  19788-2 0  9993
2 46820  97.3753 231.1590 0012842 186.6209 173.4868 15.37146356145756
FLOCK 4E'-4             
1 46821U 20077J   23165.41328500  .00063621  00000+0  19372-2 0  9998
2 46821  97.3720 229.6208 0013773 183.8671 176.2467 15.33670079145649
FLOCK 4E'-6             
1 46822U 20077K   23164.92668546  .00057448  00000+0  18173-2 0  9999
2 46822  97.3680 227.8088 0011965 194.2766 165.8140 15.32505348145561
FLOCK 4V-26             
1 46825U 20061BQ  23165.14867544  .00073690  00000+0  19085-2 0  9999
2 46825  97.3582 237.7037 0004195 251.3650 108.7140 15.38768746145614
FLOCK 4S-22             
1 47452U 21006AR  23164.41243092  .00013113  00000+0  45226-3 0  9992
2 47452  97.3918 223.5488 0009339  91.4663 268.7647 15.30073384132152
FLOCK 4S-21             
1 47456U 21006AV  23165.39564482  .00011803  00000+0  40670-3 0  9995
2 47456  97.3918 224.5973 0009475  89.7869 270.4457 15.30129157132301
FLOCK 4S-11             
1 47462U 21006BB  23165.10299475  .00005950  00000+0  28799-3 0  9992
2 47462  97.3890 219.6803 0008788 118.6409 241.5710 15.18913172131980
FLOCK 4S-33             
1 47469U 21006BJ  23164.89578811  .00012272  00000+0  42381-3 0  9996
2 47469  97.3866 223.2197 0005852 100.4868 259.7032 15.30073558132207
